     3.02           N: GNSS NAV DATA    R: GLONASS          RINEX VERSION / TYPE
Spider v7.5.1.8670  SMO                 20210712 160354 UTC PGM / RUN BY / DATE
GLUT  1.5832483768D-08 0.000000000D+00      0    0          TIME SYSTEM CORR
    18    18  1929     7                                    LEAP SECONDS
                                                            END OF HEADER
R02 2021 07 12 15 15 00 4.857620224357D-04 0.000000000000D+00 1.404000000000D+05
    -2.236833837891D+04 1.463505744934D+00-3.725290298462D-09 0.000000000000D+00
     4.667778808594D+03-5.255489349365D-01 1.862645149231D-09-4.000000000000D+00
    -1.123326318359D+04-3.125821113586D+00-9.313225746155D-10 0.000000000000D+00
R15 2021 07 12 15 45 00 1.027258113027D-04-0.000000000000D+00 1.422000000000D+05
    -1.790687988281D+03 9.811687469482D-02-1.862645149231D-09 0.000000000000D+00
     2.457997314453D+04-9.089488983154D-01-0.000000000000D+00 0.000000000000D+00
     6.616571777344D+03 3.415269851685D+00-1.862645149231D-09 0.000000000000D+00
R04 2021 07 12 15 45 00 9.548943489790D-05 1.818989403546D-12 1.422000000000D+05
    -1.162171826172D+04-1.738101005554D+00-1.862645149231D-09 0.000000000000D+00
     1.633709960938D+04 1.286015510559D+00 0.000000000000D+00 6.000000000000D+00
     1.579613964844D+04-2.613927841187D+00-2.793967723846D-09 0.000000000000D+00
R03 2021 07 12 15 45 00 3.938283771276D-05 0.000000000000D+00 1.422000000000D+05
    -2.141716943359D+04 1.210527420044D-01-3.725290298462D-09 0.000000000000D+00
     1.380288330078D+04 1.124458312988D-01 1.862645149231D-09 5.000000000000D+00
    -2.468540039063D+02-3.574398040771D+00-1.862645149231D-09 0.000000000000D+00
R05 2021 07 12 15 45 00 7.521826773882D-05 9.094947017729D-13 1.422000000000D+05
     4.650133789063D+03-2.649339675903D+00 9.313225746155D-10 0.000000000000D+00
     9.850563964844D+03 1.717618942261D+00-1.862645149231D-09 1.000000000000D+00
     2.307701269531D+04-2.012596130371D-01-1.862645149231D-09 0.000000000000D+00
R14 2021 07 12 15 45 00 6.637908518314D-05 0.000000000000D+00 1.422000000000D+05
    -8.953787597656D+03-9.500694274902D-02-0.000000000000D+00 0.000000000000D+00
     1.292185107422D+04-2.747183799744D+00-0.000000000000D+00-7.000000000000D+00
     2.011112695313D+04 1.722285270691D+00-2.793967723846D-09 0.000000000000D+00
R13 2021 07 12 15 45 00-5.761627107859D-05-0.000000000000D+00 1.422000000000D+05
    -1.097905468750D+04-2.541933059692D-01 9.313225746155D-10 0.000000000000D+00
    -7.100507324219D+03-2.989384651184D+00 0.000000000000D+00-2.000000000000D+00
     2.189075146484D+04-1.097065925598D+00-1.862645149231D-09 0.000000000000D+00
R16 2021 07 12 15 45 00-1.778453588486D-05-9.094947017729D-13 1.423800000000D+05
     7.594483398438D+03 2.381610870361D-01-2.793967723846D-09 0.000000000000D+00
     2.113725878906D+04 1.628374099731D+00-0.000000000000D+00-1.000000000000D+00
    -1.198790820313D+04 3.037541389465D+00 0.000000000000D+00 0.000000000000D+00
